format  = 'OEF1.1'       ! file format
rectype = 'ML'           ! record type (1L/ML)
refsys  = ECLM J2000     ! default reference system
END_OF_HEADER
1995CS
! Equinoctial elements: a, e*sin(LP), e*cos(LP), tan(i/2)*sin(LN), tan(i/2)*cos(LN), mean long.
 EQU   1.90735610081451E+00  0.360404232405721  0.680101354139801  0.015750733062829 -0.016108968461582 342.4517060315733
 MJD     52470.00000000 TDT
 MAG  25.481  0.150
! RMS    2.34595E-02   1.71557E-03   3.35451E-03   1.18752E-04   1.11392E-04   1.94599E+01
! EIG   2.63194E-09   3.22749E-08   1.57252E-07   2.47441E-06   3.59878E-05   3.40470E-01
! WEA  -0.06890  -0.00504  -0.00985  -0.00035   0.00033   0.99756
 COV   5.503459918116769E-04  4.024222524463400E-05  7.869247239295792E-05
 COV   2.785354282514100E-06 -2.612627109253312E-06 -4.565188196707771E-01
 COV   2.943177608359577E-06  5.753481278111164E-06  2.036349317340315E-07
 COV  -1.910039582986927E-07 -3.338135898633288E-02  1.125271680705220E-05
 COV   3.983077148928781E-07 -3.736108641774517E-07 -6.527645153715806E-02
 COV   1.410192035716076E-08 -1.322790416795499E-08 -2.310489698991107E-03
 COV   1.240810723929076E-08  2.167210463526744E-03  3.786880249179550E+02
 NOR   1.365020701616874E+17  5.700769679959779E+15  2.245455989404956E+16
 NOR   2.459829291715191E+14  2.638264981630923E+14  1.689301212259482E+14
 NOR   2.597168705934014E+14  9.583831957833510E+14  1.003528410782059E+13
 NOR   1.037042686721742E+13  7.060531987875974E+12  3.713403076517111E+15
 NOR   3.981703912529262E+13  4.239611231281387E+13  2.779416963704170E+13
 NOR   5.001385903948999E+14  4.799693984141672E+14  3.045919218450077E+11
 NOR   4.609398359086616E+14  3.265627926691341E+11  2.090633061674209E+11
